$$SOE
2460154.500000000, A.D. 2023-Jul-29 00:00:00.0000, -2.319561672707401E+08, 1.912422849393348E+08, 2.837096081631365E+07,
2460161.500000000, A.D. 2023-Aug-05 00:00:00.0000, -2.418054325284372E+08, 1.820146969359867E+08, 2.751607542343545E+07,
2460168.500000000, A.D. 2023-Aug-12 00:00:00.0000, -2.512366241733662E+08, 1.724722818391990E+08, 2.661360104678678E+07,
2460175.500000000, A.D. 2023-Aug-19 00:00:00.0000, -2.602418883539301E+08, 1.626373417275307E+08, 2.566599391238429E+07,
2460182.500000000, A.D. 2023-Aug-26 00:00:00.0000, -2.688147218511963E+08, 1.525320278742000E+08, 2.467572536517815E+07,
2460189.500000000, A.D. 2023-Sep-02 00:00:00.0000, -2.769499099184142E+08, 1.421782567615674E+08, 2.364527037787896E+07,
2460196.500000000, A.D. 2023-Sep-09 00:00:00.0000, -2.846434602470836E+08, 1.315976354854043E+08, 2.257709708225332E+07,
2460203.500000000, A.D. 2023-Sep-16 00:00:00.0000, -2.918925340844471E+08, 1.208113962729686E+08, 2.147365730604915E+07,
2460210.500000000, A.D. 2023-Sep-23 00:00:00.0000, -2.986953751631324E+08, 1.098403400632473E+08, 2.033737808704732E+07,
2460217.500000000, A.D. 2023-Sep-30 00:00:00.0000, -3.050512377387038E+08, 9.870478990603447E+07, 1.917065426476213E+07,
2460224.500000000, A.D. 2023-Oct-07 00:00:00.0000, -3.109603169269478E+08, 8.742455313185877E+07, 1.797584228206128E+07,
2460231.500000000, A.D. 2023-Oct-14 00:00:00.0000, -3.164236810228686E+08, 7.601888842977288E+07, 1.675525478269576E+07,
2460238.500000000, A.D. 2023-Oct-21 00:00:00.0000, -3.214432031690838E+08, 6.450647885725937E+07, 1.551115578529643E+07,
2460245.500000000, A.D. 2023-Oct-28 00:00:00.0000, -3.260214942812757E+08, 5.290541244012706E+07, 1.424575669035001E+07,
2460252.500000000, A.D. 2023-Nov-04 00:00:00.0000, -3.301618388777947E+08, 4.123316898798538E+07, 1.296121311050973E+07,
2460259.500000000, A.D. 2023-Nov-11 00:00:00.0000, -3.338681339457757E+08, 2.950661193927730E+07, 1.165962239685795E+07,
2460266.500000000, A.D. 2023-Nov-18 00:00:00.0000, -3.371448308479560E+08, 1.774198460529208E+07, 1.034302177402249E+07,
2460273.500000000, A.D. 2023-Nov-25 00:00:00.0000, -3.399968803486875E+08, 5.954910293029850E+06, 9.013387018850064E+06,
2460280.500000000, A.D. 2023-Dec-02 00:00:00.0000, -3.424296808220727E+08, -5.839604216918559E+06, 7.672631620728117E+06,
2460287.500000000, A.D. 2023-Dec-09 00:00:00.0000, -3.444490296042657E+08, -1.762716237455291E+07, 6.322606355841030E+06,
2460294.500000000, A.D. 2023-Dec-16 00:00:00.0000, -3.460610771986722E+08, -2.939396917520070E+07, 4.965099197323188E+06,
2460301.500000000, A.D. 2023-Dec-23 00:00:00.0000, -3.472722839444132E+08, -4.112681979983748E+07, 3.601835536232797E+06,
2460308.500000000, A.D. 2023-Dec-30 00:00:00.0000, -3.480893804145980E+08, -5.281308489623626E+07, 2.234478876378421E+06,
2460315.500000000, A.D. 2024-Jan-06 00:00:00.0000, -3.485193332180128E+08, -6.444069519131339E+07, 8.646319307681769E+05,
2460322.500000000, A.D. 2024-Jan-13 00:00:00.0000, -3.485693129149833E+08, -7.599812753818356E+07, -5.061623568895012E+05,
2460329.500000000, A.D. 2024-Jan-20 00:00:00.0000, -3.482466626917557E+08, -8.747438957862312E+07, -1.876419759580690E+06,
2460336.500000000, A.D. 2024-Jan-27 00:00:00.0000, -3.475588696820697E+08, -9.885900260772596E+07, -3.244713474546999E+06,
2460343.500000000, A.D. 2024-Feb-03 00:00:00.0000, -3.465135392279234E+08, -1.101419838016844E+08, -4.609672657693662E+06,
2460350.500000000, A.D. 2024-Feb-10 00:00:00.0000, -3.451183716689545E+08, -1.213138282804641E+08, -5.969980859889381E+06,
2460357.500000000, A.D. 2024-Feb-17 00:00:00.0000, -3.433811413844805E+08, -1.323654911482446E+08, -7.324374399722785E+06,
2460364.500000000, A.D. 2024-Feb-24 00:00:00.0000, -3.413096779103906E+08, -1.432883696248864E+08, -8.671640694151111E+06,
2460371.500000000, A.D. 2024-Mar-02 00:00:00.0000, -3.389118489597738E+08, -1.540742854110386E+08, -1.001061656910653E+07,
2460378.500000000, A.D. 2024-Mar-09 00:00:00.0000, -3.361955450707449E+08, -1.647154674436807E+08, -1.134018658241490E+07,
2460385.500000000, A.D. 2024-Mar-16 00:00:00.0000, -3.331686653542089E+08, -1.752045349235025E+08, -1.265928139165667E+07,
2460392.500000000, A.D. 2024-Mar-23 00:00:00.0000, -3.298391043191200E+08, -1.855344795694560E+08, -1.396687607751460E+07,
2460399.500000000, A.D. 2024-Mar-30 00:00:00.0000, -3.262147418962740E+08, -1.956986471793909E+08, -1.526198822835664E+07,
2460406.500000000, A.D. 2024-Apr-06 00:00:00.0000, -3.223034362926491E+08, -2.056907219069493E+08, -1.654367609272183E+07,
2460413.500000000, A.D. 2024-Apr-13 00:00:00.0000, -3.181130160222504E+08, -2.155047124505748E+08, -1.781103706375897E+07,
2460420.500000000, A.D. 2024-Apr-20 00:00:00.0000, -3.136512719671946E+08, -2.251349374986123E+08, -1.906320619449423E+07,
2460427.500000000, A.D. 2024-Apr-27 00:00:00.0000, -3.089259508901589E+08, -2.345760110045058E+08, -2.029935465418026E+07,
2460434.500000000, A.D. 2024-May-04 00:00:00.0000, -3.039447502194244E+08, -2.438228280045626E+08, -2.151868819403177E+07,
2460441.500000000, A.D. 2024-May-11 00:00:00.0000, -2.987153137852671E+08, -2.528705510868699E+08, -2.272044565485257E+07,
2460448.500000000, A.D. 2024-May-18 00:00:00.0000, -2.932452283511634E+08, -2.617145974930409E+08, -2.390389752411215E+07,
2460455.500000000, A.D. 2024-May-25 00:00:00.0000, -2.875420208474350E+08, -2.703506268590509E+08, -2.506834454657684E+07,
2460462.500000000, A.D. 2024-Jun-01 00:00:00.0000, -2.816131561856338E+08, -2.787745296480557E+08, -2.621311639951643E+07,
2460469.500000000, A.D. 2024-Jun-08 00:00:00.0000, -2.754660353507174E+08, -2.869824162904354E+08, -2.733757045743555E+07,
2460476.500000000, A.D. 2024-Jun-15 00:00:00.0000, -2.691079933194341E+08, -2.949706064753632E+08, -2.844109063848495E+07,
2460483.500000000, A.D. 2024-Jun-22 00:00:00.0000, -2.625462977615093E+08, -3.027356174055237E+08, -2.952308614388815E+07,
2460490.500000000, A.D. 2024-Jun-29 00:00:00.0000, -2.557881505993828E+08, -3.102741528214521E+08, -3.058299004387470E+07,
2460497.500000000, A.D. 2024-Jul-06 00:00:00.0000, -2.488406897400620E+08, -3.175830952534391E+08, -3.162025815405834E+07,
2460504.500000000, A.D. 2024-Jul-13 00:00:00.0000, -2.417109889936331E+08, -3.246594986635729E+08, -3.263436814953579E+07,
2460511.500000000, A.D. 2024-Jul-20 00:00:00.0000, -2.344060581307206E+08, -3.315005803137158E+08, -3.362481863955125E+07,
2460518.500000000, A.D. 2024-Jul-27 00:00:00.0000, -2.269328437032871E+08, -3.381037128023039E+08, -3.459112821962792E+07,
2460525.500000000, A.D. 2024-Aug-03 00:00:00.0000, -2.192982303262938E+08, -3.444664166288596E+08, -3.553283455560954E+07,
2460532.500000000, A.D. 2024-Aug-10 00:00:00.0000, -2.115090422276567E+08, -3.505863532760431E+08, -3.644949351426135E+07,
2460539.500000000, A.D. 2024-Aug-17 00:00:00.0000, -2.035720449958655E+08, -3.564613187740939E+08, -3.734067834231745E+07,
2460546.500000000, A.D. 2024-Aug-24 00:00:00.0000, -1.954939474773641E+08, -3.620892377567002E+08, -3.820597889770007E+07,
2460553.500000000, A.D. 2024-Aug-31 00:00:00.0000, -1.872814036904361E+08, -3.674681580563093E+08, -3.904500094780038E+07,
2460560.500000000, A.D. 2024-Sep-07 00:00:00.0000, -1.789410143744885E+08, -3.725962456987507E+08, -3.985736555715790E+07,
2460567.500000000, A.D. 2024-Sep-14 00:00:00.0000, -1.704793280755788E+08, -3.774717792867423E+08, -4.064270848981939E+07,
2460574.500000000, A.D. 2024-Sep-21 00:00:00.0000, -1.619028437835194E+08, -3.820931433436600E+08, -4.140067940495321E+07,
2460581.500000000, A.D. 2024-Sep-28 00:00:00.0000, -1.532180155935960E+08, -3.864588238293541E+08, -4.213094106299424E+07,
2460588.500000000, A.D. 2024-Oct-05 00:00:00.0000, -1.444312557090289E+08, -3.905674058141951E+08, -4.283316887748760E+07,
2460595.500000000, A.D. 2024-Oct-12 00:00:00.0000, -1.355489361328648E+08, -3.944175703225738E+08, -4.350705053532067E+07,
2460602.500000000, A.D. 2024-Oct-19 00:00:00.0000, -1.265773907909321E+08, -3.980080906095382E+08, -4.415228554656938E+07,
2460609.500000000, A.D. 2024-Oct-26 00:00:00.0000, -1.175229181115551E+08, -4.013378286650539E+08, -4.476858478625628E+07,
2460616.500000000, A.D. 2024-Nov-02 00:00:00.0000, -1.083917837995111E+08, -4.044057320864329E+08, -4.535567006326279E+07,
2460623.500000000, A.D. 2024-Nov-09 00:00:00.0000, -9.919022370247820E+07, -4.072108312897261E+08, -4.591327372279674E+07,
2460630.500000000, A.D. 2024-Nov-16 00:00:00.0000, -8.992444673874305E+07, -4.097522370518791E+08, -4.644113828395358E+07,
2460637.500000000, A.D. 2024-Nov-23 00:00:00.0000, -8.060063783436422E+07, -4.120291384266512E+08, -4.693901611997601E+07,
2460644.500000000, A.D. 2024-Nov-30 00:00:00.0000, -7.122496065729289E+07, -4.140408010707465E+08, -4.740666920302764E+07,
2460651.500000000, A.D. 2024-Dec-07 00:00:00.0000, -6.180355972530049E+07, -4.157865655538644E+08, -4.784386891681412E+07,
2460658.500000000, A.D. 2024-Dec-14 00:00:00.0000, -5.234256257304633E+07, -4.172658444233139E+08, -4.825039577309561E+07,
2460665.500000000, A.D. 2024-Dec-21 00:00:00.0000, -4.284808429348971E+07, -4.184781192583559E+08, -4.862603892001390E+07,
2460672.500000000, A.D. 2024-Dec-28 00:00:00.0000, -3.332623247726198E+07, -4.194229406771679E+08, -4.897059586506557E+07,
2460679.500000000, A.D. 2025-Jan-04 00:00:00.0000, -2.378310994947128E+07, -4.200999289186031E+08, -4.928387245652702E+07,
2460686.500000000, A.D. 2025-Jan-11 00:00:00.0000, -1.422481712310849E+07, -4.205087733381066E+08, -4.956568282040134E+07,
2460693.500000000, A.D. 2025-Jan-18 00:00:00.0000, -4.657454884201331E+06, -4.206492317354581E+08, -4.981584924349746E+07,
2460700.500000000, A.D. 2025-Jan-25 00:00:00.0000, 4.912872236548023E+06, -4.205211299879254E+08, -5.003420206337756E+07,
2460707.500000000, A.D. 2025-Feb-01 00:00:00.0000, 1.448005279693419E+07, -4.201243620182884E+08, -5.022057958466482E+07,
2460714.500000000, A.D. 2025-Feb-08 00:00:00.0000, 2.403796514179171E+07, -4.194588900777920E+08, -5.037482802520964E+07,
$$EOE